AQUA                    
1 27424U 02022A   26084.96947742  .00000976  00000+0  20440-3 0  9997
2 27424  98.4201  52.6343 0001015 117.4294 283.6062 14.62012777271119
CZ-4B R/B               
1 27432U 02024C   26084.93902345  .00000036  00000+0  41451-4 0  9998
2 27432  98.8805 138.2614 0049645 338.0251 195.5798 14.14550415231531
MIDORI II (ADEOS-II)    
1 27597U 02056A   26084.90472915  .00000302  00000+0  13637-3 0  9997
2 27597  98.7796  43.4972 0000895  25.0743 335.0482 14.29296758212610
H-2A R/B                
1 27601U 02056E   26084.89837259  .00000286  00000+0  11425-3 0  9991
2 27601  98.3230  44.6496 0071292 112.8786 311.0031 14.33770985216432
CZ-4B R/B               
1 28059U 03049C   26084.88774618  .00000350  00000+0  91875-4 0  9990
2 28059  98.6892  80.4300 0048101 180.9108 179.2008 14.55034191188955
CZ-2C R/B               
1 28222U 04012C   26084.90881878  .00054047  00000+0  51656-3 0  9997
2 28222  97.7188 151.7591 0013142 243.8341 116.1567 15.66458756206810
SL-16 R/B               
1 28353U 04021B   26084.72092965  .00000079  00000+0  66158-4 0  9993
2 28353  71.0004 198.8497 0004808 350.3139   9.7890 14.14593727125100
CZ-4B R/B               
1 28415U 04035C   26084.81005743  .00007721  00000+0  27040-3 0  9992
2 28415  97.3476 118.8605 0029974 271.2904  88.4902 15.29338078182371
CZ-2C R/B               
1 28480U 04046B   26084.68293007  .00000136  00000+0  65085-4 0  9998
2 28480  98.1976 358.6706 0140564 107.4306 254.2300 14.26997529110787
ARIANE 5 R/B            
1 28499U 04049H   26084.93563223  .00000760  00000+0  90469-4 0  9996
2 28499  98.2652 254.0037 0082978 298.8427  60.4476 14.85293851148209
CZ-2D R/B               
1 28738U 05024B   26084.48034932  .00042977  00000+0  50058-3 0  9991
2 28738  97.3590 100.2219 0002972 356.1869   3.9365 15.61567796142248
ALOS (DAICHI)           
1 28931U 06002A   26084.43264916  .00001327  00000+0  23028-3 0  9996
2 28931  98.1243  40.3121 0000779 100.0566 260.0728 14.69856125 75794
