CCSDS_OMM_VERS = 2.0
CREATION_DATE  = 
ORIGINATOR     = 

OBJECT_NAME    = AQUA
OBJECT_ID      = 2002-022A
CENTER_NAME    = EARTH
REF_FRAME      = TEME
TIME_SYSTEM    = UTC
MEAN_ELEMENT_THEORY = SGP/SGP4

EPOCH          = 2026-03-25T23:16:02.849088
MEAN_MOTION    = 14.62012777
ECCENTRICITY   = .00010156
INCLINATION    = 98.4201
RA_OF_ASC_NODE = 52.6343
ARG_OF_PERICENTER = 117.4294
MEAN_ANOMALY   = 283.6062

EPHEMERIS_TYPE = 0
CLASSIFICATION_TYPE = U
NORAD_CAT_ID   = 27424
ELEMENT_SET_NO = 999
REV_AT_EPOCH   = 27111
BSTAR          = .20440133E-3
MEAN_MOTION_DOT = .976E-5
MEAN_MOTION_DDOT = 0

CCSDS_OMM_VERS = 2.0
CREATION_DATE  = 
ORIGINATOR     = 

OBJECT_NAME    = CZ-4B R/B
OBJECT_ID      = 2002-024C
CENTER_NAME    = EARTH
REF_FRAME      = TEME
TIME_SYSTEM    = UTC
MEAN_ELEMENT_THEORY = SGP/SGP4

EPOCH          = 2026-03-25T22:32:11.626080
MEAN_MOTION    = 14.14550415
ECCENTRICITY   = .00496453
INCLINATION    = 98.8805
RA_OF_ASC_NODE = 138.2614
ARG_OF_PERICENTER = 338.0251
MEAN_ANOMALY   = 195.5798

EPHEMERIS_TYPE = 0
CLASSIFICATION_TYPE = U
NORAD_CAT_ID   = 27432
ELEMENT_SET_NO = 999
REV_AT_EPOCH   = 23153
BSTAR          = .41451452E-4
MEAN_MOTION_DOT = .36E-6
MEAN_MOTION_DDOT = 0

CCSDS_OMM_VERS = 2.0
CREATION_DATE  = 
ORIGINATOR     = 

OBJECT_NAME    = MIDORI II (ADEOS-II)
OBJECT_ID      = 2002-056A
CENTER_NAME    = EARTH
REF_FRAME      = TEME
TIME_SYSTEM    = UTC
MEAN_ELEMENT_THEORY = SGP/SGP4

EPOCH          = 2026-03-25T21:42:48.598560
MEAN_MOTION    = 14.29296758
ECCENTRICITY   = .00008955
INCLINATION    = 98.7796
RA_OF_ASC_NODE = 43.4972
ARG_OF_PERICENTER = 25.0743
MEAN_ANOMALY   = 335.0482

EPHEMERIS_TYPE = 0
CLASSIFICATION_TYPE = U
NORAD_CAT_ID   = 27597
ELEMENT_SET_NO = 999
REV_AT_EPOCH   = 21261
BSTAR          = .13637071E-3
MEAN_MOTION_DOT = .302E-5
MEAN_MOTION_DDOT = 0

CCSDS_OMM_VERS = 2.0
CREATION_DATE  = 
ORIGINATOR     = 

OBJECT_NAME    = H-2A R/B
OBJECT_ID      = 2002-056E
CENTER_NAME    = EARTH
REF_FRAME      = TEME
TIME_SYSTEM    = UTC
MEAN_ELEMENT_THEORY = SGP/SGP4

EPOCH          = 2026-03-25T21:33:39.391776
MEAN_MOTION    = 14.33770985
ECCENTRICITY   = .00712925
INCLINATION    = 98.3230
RA_OF_ASC_NODE = 44.6496
ARG_OF_PERICENTER = 112.8786
MEAN_ANOMALY   = 311.0031

EPHEMERIS_TYPE = 0
CLASSIFICATION_TYPE = U
NORAD_CAT_ID   = 27601
ELEMENT_SET_NO = 999
REV_AT_EPOCH   = 21643
BSTAR          = .11425197E-3
MEAN_MOTION_DOT = .286E-5
MEAN_MOTION_DDOT = 0

CCSDS_OMM_VERS = 2.0
CREATION_DATE  = 
ORIGINATOR     = 

OBJECT_NAME    = CZ-4B R/B
OBJECT_ID      = 2003-049C
CENTER_NAME    = EARTH
REF_FRAME      = TEME
TIME_SYSTEM    = UTC
MEAN_ELEMENT_THEORY = SGP/SGP4

EPOCH          = 2026-03-25T21:18:21.269952
MEAN_MOTION    = 14.55034191
ECCENTRICITY   = .00481014
INCLINATION    = 98.6892
RA_OF_ASC_NODE = 80.4300
ARG_OF_PERICENTER = 180.9108
MEAN_ANOMALY   = 179.2008

EPHEMERIS_TYPE = 0
CLASSIFICATION_TYPE = U
NORAD_CAT_ID   = 28059
ELEMENT_SET_NO = 999
REV_AT_EPOCH   = 18895
BSTAR          = .91875172E-4
MEAN_MOTION_DOT = .35E-5
MEAN_MOTION_DDOT = 0

CCSDS_OMM_VERS = 2.0
CREATION_DATE  = 
ORIGINATOR     = 

OBJECT_NAME    = CZ-2C R/B
OBJECT_ID      = 2004-012C
CENTER_NAME    = EARTH
REF_FRAME      = TEME
TIME_SYSTEM    = UTC
MEAN_ELEMENT_THEORY = SGP/SGP4

EPOCH          = 2026-03-25T21:48:41.942592
MEAN_MOTION    = 15.66458756
ECCENTRICITY   = .00131425
INCLINATION    = 97.7188
RA_OF_ASC_NODE = 151.7591
ARG_OF_PERICENTER = 243.8341
MEAN_ANOMALY   = 116.1567

EPHEMERIS_TYPE = 0
CLASSIFICATION_TYPE = U
NORAD_CAT_ID   = 28222
ELEMENT_SET_NO = 999
REV_AT_EPOCH   = 20681
BSTAR          = .51656429E-3
MEAN_MOTION_DOT = .54047E-3
MEAN_MOTION_DDOT = 0

CCSDS_OMM_VERS = 2.0
CREATION_DATE  = 
ORIGINATOR     = 

OBJECT_NAME    = SL-16 R/B
OBJECT_ID      = 2004-021B
CENTER_NAME    = EARTH
REF_FRAME      = TEME
TIME_SYSTEM    = UTC
MEAN_ELEMENT_THEORY = SGP/SGP4

EPOCH          = 2026-03-25T17:18:08.321760
MEAN_MOTION    = 14.14593727
ECCENTRICITY   = .00048087
INCLINATION    = 71.0004
RA_OF_ASC_NODE = 198.8497
ARG_OF_PERICENTER = 350.3139
MEAN_ANOMALY   = 9.7890

EPHEMERIS_TYPE = 0
CLASSIFICATION_TYPE = U
NORAD_CAT_ID   = 28353
ELEMENT_SET_NO = 999
REV_AT_EPOCH   = 12510
BSTAR          = .66158092E-4
MEAN_MOTION_DOT = .79E-6
MEAN_MOTION_DDOT = 0

CCSDS_OMM_VERS = 2.0
CREATION_DATE  = 
ORIGINATOR     = 

OBJECT_NAME    = CZ-4B R/B
OBJECT_ID      = 2004-035C
CENTER_NAME    = EARTH
REF_FRAME      = TEME
TIME_SYSTEM    = UTC
MEAN_ELEMENT_THEORY = SGP/SGP4

EPOCH          = 2026-03-25T19:26:28.961952
MEAN_MOTION    = 15.29338078
ECCENTRICITY   = .00299743
INCLINATION    = 97.3476
RA_OF_ASC_NODE = 118.8605
ARG_OF_PERICENTER = 271.2904
MEAN_ANOMALY   = 88.4902

EPHEMERIS_TYPE = 0
CLASSIFICATION_TYPE = U
NORAD_CAT_ID   = 28415
ELEMENT_SET_NO = 999
REV_AT_EPOCH   = 18237
BSTAR          = .27040461E-3
MEAN_MOTION_DOT = .7721E-4
MEAN_MOTION_DDOT = 0

CCSDS_OMM_VERS = 2.0
CREATION_DATE  = 
ORIGINATOR     = 

OBJECT_NAME    = CZ-2C R/B
OBJECT_ID      = 2004-046B
CENTER_NAME    = EARTH
REF_FRAME      = TEME
TIME_SYSTEM    = UTC
MEAN_ELEMENT_THEORY = SGP/SGP4

EPOCH          = 2026-03-25T16:23:25.158048
MEAN_MOTION    = 14.26997529
ECCENTRICITY   = .01405643
INCLINATION    = 98.1976
RA_OF_ASC_NODE = 358.6706
ARG_OF_PERICENTER = 107.4306
MEAN_ANOMALY   = 254.2300

EPHEMERIS_TYPE = 0
CLASSIFICATION_TYPE = U
NORAD_CAT_ID   = 28480
ELEMENT_SET_NO = 999
REV_AT_EPOCH   = 11078
BSTAR          = .65084955E-4
MEAN_MOTION_DOT = .136E-5
MEAN_MOTION_DDOT = 0

CCSDS_OMM_VERS = 2.0
CREATION_DATE  = 
ORIGINATOR     = 

OBJECT_NAME    = ARIANE 5 R/B
OBJECT_ID      = 2004-049H
CENTER_NAME    = EARTH
REF_FRAME      = TEME
TIME_SYSTEM    = UTC
MEAN_ELEMENT_THEORY = SGP/SGP4

EPOCH          = 2026-03-25T22:27:18.624672
MEAN_MOTION    = 14.85293851
ECCENTRICITY   = .00829787
INCLINATION    = 98.2652
RA_OF_ASC_NODE = 254.0037
ARG_OF_PERICENTER = 298.8427
MEAN_ANOMALY   = 60.4476

EPHEMERIS_TYPE = 0
CLASSIFICATION_TYPE = U
NORAD_CAT_ID   = 28499
ELEMENT_SET_NO = 999
REV_AT_EPOCH   = 14820
BSTAR          = .90468839E-4
MEAN_MOTION_DOT = .76E-5
MEAN_MOTION_DDOT = 0

CCSDS_OMM_VERS = 2.0
CREATION_DATE  = 
ORIGINATOR     = 

OBJECT_NAME    = CZ-2D R/B
OBJECT_ID      = 2005-024B
CENTER_NAME    = EARTH
REF_FRAME      = TEME
TIME_SYSTEM    = UTC
MEAN_ELEMENT_THEORY = SGP/SGP4

EPOCH          = 2026-03-25T11:31:42.181248
MEAN_MOTION    = 15.61567796
ECCENTRICITY   = .00029724
INCLINATION    = 97.3590
RA_OF_ASC_NODE = 100.2219
ARG_OF_PERICENTER = 356.1869
MEAN_ANOMALY   = 3.9365

EPHEMERIS_TYPE = 0
CLASSIFICATION_TYPE = U
NORAD_CAT_ID   = 28738
ELEMENT_SET_NO = 999
REV_AT_EPOCH   = 14224
BSTAR          = .50057763E-3
MEAN_MOTION_DOT = .42977E-3
MEAN_MOTION_DDOT = 0

CCSDS_OMM_VERS = 2.0
CREATION_DATE  = 
ORIGINATOR     = 

OBJECT_NAME    = ALOS (DAICHI)
OBJECT_ID      = 2006-002A
CENTER_NAME    = EARTH
REF_FRAME      = TEME
TIME_SYSTEM    = UTC
MEAN_ELEMENT_THEORY = SGP/SGP4

EPOCH          = 2026-03-25T10:23:00.887424
MEAN_MOTION    = 14.69856125
ECCENTRICITY   = .00007794
INCLINATION    = 98.1243
RA_OF_ASC_NODE = 40.3121
ARG_OF_PERICENTER = 100.0566
MEAN_ANOMALY   = 260.0728

EPHEMERIS_TYPE = 0
CLASSIFICATION_TYPE = U
NORAD_CAT_ID   = 28931
ELEMENT_SET_NO = 999
REV_AT_EPOCH   = 7579
BSTAR          = .2302797E-3
MEAN_MOTION_DOT = .1327E-4
MEAN_MOTION_DDOT = 0

